STARLINK-30803          
1 58157U 23166H   26068.72492175  .00000230  00000+0  19910-4 0  9991
2 58157  53.1605 219.5071 0001194  81.5677 278.5459 15.30189116133037
HAWK-11B                
1 62379U 24247C   26068.44730104  .00009093  00000+0  32842-3 0  9993
2 62379  45.0161 115.7610 0004690 333.0326  27.0314 15.28847070 67738
